NORAD_CAT_ID,OBJECT_NAME,OBJECT_TYPE,EPOCH,MEAN_MOTION,ECCENTRICITY,INCLINATION,RA_OF_ASC_NODE,ARG_OF_PERICENTER,MEAN_ANOMALY,BSTAR,MEAN_MOTION_DOT,MEAN_MOTION_DDOT,TLE_LINE0,TLE_LINE1,TLE_LINE2,SEMIMAJOR_AXIS,PERIOD,APOGEE,PERIGEE,DECAYED
53986.0,STARLINK-5119,PAYLOAD,2022-12-24 14:00:01,15.28565448,0.0001544,53.2171,61.792,58.1242,178.7834,-0.035991,-0.00939149,0.0,0 STARLINK-5119,1 53986U 22125Y   22358.58334491 -.00939149  00000-0 -35991-1 0  9995,2 53986  53.2171  61.7920 0001544  58.1242 178.7834 15.28565448  1303,6858.236999999999,94.206,481.161,479.043,0.0
53986.0,STARLINK-5119,PAYLOAD,2022-12-24 22:00:00,15.27903877,0.0001463,53.2172,60.2487,49.6552,222.1439,-0.036168,-0.00925771,0.0,0 STARLINK-5119,1 53986U 22125Y   22358.91667824 -.00925771  00000-0 -36168-1 0  9994,2 53986  53.2172  60.2487 0001463  49.6552 222.1439 15.27903877  1301,6860.215999999999,94.247,483.085,481.078,0.0
53986.0,STARLINK-5119,PAYLOAD,2022-12-25 06:00:00,15.27254562,0.0001571,53.2169,58.7084,43.6381,262.2623,-0.036935,-0.00926729,0.0,0 STARLINK-5119,1 53986U 22125Y   22359.25001157 -.00926729  00000-0 -36935-1 0  9999,2 53986  53.2169  58.7084 0001571  43.6381 262.2623 15.27254562 12960,6862.161,94.287,485.104,482.948,0.0
53986.0,STARLINK-5119,PAYLOAD,2022-12-25 14:00:01,15.26602151,0.0001401,53.217,57.1718,55.4307,283.7896,-0.037602,-0.00924976,0.0,0 STARLINK-5119,1 53986U 22125Y   22359.58334491 -.00924976  00000-0 -37602-1 0  9999,2 53986  53.2170  57.1718 0001401  55.4307 283.7896 15.26602151  1306,6864.116,94.327,486.942,485.019,0.0
53986.0,STARLINK-5119,PAYLOAD,2022-12-26 00:00:00,15.25784531,0.0001583,53.2174,55.2483,46.2832,63.4908,-0.038311,-0.00919731,0.0,0 STARLINK-5119,1 53986U 22125Y   22360.00001157 -.00919731  00000-0 -38311-1 0  9999,2 53986  53.2174  55.2483 0001583  46.2832  63.4908 15.25784531  1309,6866.568,94.378,489.52,487.346,0.0
53986.0,STARLINK-5119,PAYLOAD,2022-12-26 06:00:00,15.25307433,0.0001561,53.2168,54.0974,43.4118,0.1001,-0.039602,-0.00935836,0.0,0 STARLINK-5119,1 53986U 22125Y   22360.25001157 -.00935836  00000-0 -39602-1 0  9994,2 53986  53.2168  54.0974 0001561  43.4118   0.1001 15.25307433 13123,6867.999,94.407,490.937,488.792,0.0
53986.0,STARLINK-5119,PAYLOAD,2022-12-26 14:00:01,15.24643834,0.0001523,53.217,52.5651,51.6503,22.8397,-0.039546,-0.00917403,0.0,0 STARLINK-5119,1 53986U 22125Y   22360.58334491 -.00917403  00000-0 -39546-1 0  9997,2 53986  53.2170  52.5651 0001523  51.6503  22.8397 15.24643834  1301,6869.9919999999975,94.448,492.903,490.811,0.0
53986.0,STARLINK-5119,PAYLOAD,2022-12-27 00:00:00,15.23830958,0.0001585,53.2171,50.6475,52.4786,149.6291,-0.040584,-0.00918696,0.0,0 STARLINK-5119,1 53986U 22125Y   22361.00001157 -.00918696  00000-0 -40584-1 0  9994,2 53986  53.2171  50.6475 0001585  52.4786 149.6291 15.23830958  1300,6872.435,94.499,495.389,493.211,0.0
53986.0,STARLINK-5119,PAYLOAD,2022-12-27 14:00:01,15.22689038,0.0001675999999999,53.217,47.9723,50.1407,112.5764,-0.041752,-0.0091385,0.0,0 STARLINK-5119,1 53986U 22125Y   22361.58334491 -.00913850  00000-0 -41752-1 0  9992,2 53986  53.2170  47.9723 0001676  50.1407 112.5764 15.22689038 13329,6875.871,94.57,498.888,496.583,0.0
53986.0,STARLINK-5119,PAYLOAD,2022-12-27 22:00:00,15.22046157,0.0001789,53.2171,46.4427,42.9092,147.6498,-0.043166,-0.00926007,0.0,0 STARLINK-5119,1 53986U 22125Y   22361.91667824 -.00926007  00000-0 -43166-1 0  9997,2 53986  53.2171  46.4427 0001789  42.9092 147.6498 15.22046157  1306,6877.807,94.609,500.902,498.441,0.0
53986.0,STARLINK-5119,PAYLOAD,2022-12-28 14:00:01,15.20736189,0.0001626999999999,53.2169,43.3932,49.7892,194.1138,-0.0442209999999999,-0.00913579,0.0,0 STARLINK-5119,1 53986U 22125Y   22362.58334491 -.00913579  00000-0 -44221-1 0  9995,2 53986  53.2169  43.3932 0001627  49.7892 194.1138 15.20736189 13472,6881.755999999999,94.691,504.74,502.501,0.0
53986.0,STARLINK-5119,PAYLOAD,2022-12-28 22:00:00,15.20088836,0.0001703,53.2173,41.868,44.2141,225.1861,-0.045395,-0.00919714,0.0,0 STARLINK-5119,1 53986U 22125Y   22362.91667824 -.00919714  00000-0 -45395-1 0  9991,2 53986  53.2173  41.8680 0001703  44.2141 225.1861 15.20088836  1308,6883.709,94.731,506.747,504.402,0.0
53986.0,STARLINK-5119,PAYLOAD,2022-12-29 14:00:01,15.18797105,0.0001499,53.217,38.8277,46.6689,271.3733,-0.047915,-0.00933702,0.0,0 STARLINK-5119,1 53986U 22125Y   22363.58334491 -.00933702  00000-0 -47915-1 0  9999,2 53986  53.2170  38.8277 0001499  46.6689 271.3733 15.18797105 13620,6887.611999999999,94.812,510.509,508.444,0.0
53986.0,STARLINK-5119,PAYLOAD,2022-12-30 14:00:01,15.16837891,0.0001636,53.2169,34.276,45.3114,339.8387,-0.050194,-0.00924929,0.0,0 STARLINK-5119,1 53986U 22125Y   22364.58334491 -.00924929  00000-0 -50194-1 0  9994,2 53986  53.2169  34.2760 0001636  45.3114 339.8387 15.16837891  1309,6893.542,94.934,516.534,514.279,0.0
53986.0,STARLINK-5119,PAYLOAD,2022-12-30 22:00:00,15.16179964,0.0001629999999999,53.2173,32.76,42.2538,3.7047,-0.050611,-0.00915865,0.0,0 STARLINK-5119,1 53986U 22125Y   22364.91667824 -.00915865  00000-0 -50611-1 0  9993,2 53986  53.2173  32.7600 0001630  42.2538   3.7047 15.16179964 13831,6895.536,94.976,518.525,516.2769999999998,0.0
53986.0,STARLINK-5119,PAYLOAD,2022-12-31 14:00:01,15.14877226,0.0001776999999999,53.217,29.7378,43.8448,41.3734,-0.052413,-0.00914006,0.0,0 STARLINK-5119,1 53986U 22125Y   22365.58334491 -.00914006  00000-0 -52413-1 0  9996,2 53986  53.2170  29.7378 0001777  43.8448  41.3734 15.14877226  1309,6899.488,95.057,522.5790000000002,520.127,0.0
53986.0,STARLINK-5119,PAYLOAD,2022-12-31 22:00:00,15.14232223,0.0001756,53.2173,28.2266,42.8057,60.8678,-0.053979,-0.00923476,0.0,0 STARLINK-5119,1 53986U 22125Y   22365.91667824 -.00923476  00000-0 -53979-1 0  9991,2 53986  53.2173  28.2266 0001756  42.8057  60.8678 15.14232223  1309,6901.446999999999,95.098,524.524,522.101,0.0
53986.0,STARLINK-5119,PAYLOAD,2023-01-01 14:00:01,15.1293225,0.0001862,53.2169,25.2134,43.036,95.2021,-0.056114,-0.00925259,0.0,0 STARLINK-5119,1 53986U 22125Y   23001.58334491 -.00925259  00000-0 -56114-1 0  9998,2 53986  53.2169  25.2134 0001862  43.0360  95.2021 15.12932250  1302,6905.4,95.179,528.5509999999998,525.979,0.0
53986.0,STARLINK-5119,PAYLOAD,2023-01-01 22:00:00,15.12276199,0.0001757,53.2173,23.7067,46.3671,107.9848,-0.056758,-0.00919239,0.0,0 STARLINK-5119,1 53986U 22125Y   23001.91667824 -.00919239  00000-0 -56758-1 0  9999,2 53986  53.2173  23.7067 0001757  46.3671 107.9848 15.12276199 14135,6907.397,95.221,530.476,528.049,0.0
53986.0,STARLINK-5119,PAYLOAD,2023-01-02 00:00:00,15.12112853,0.0001643,53.2174,23.3303,50.6198,197.6379,-0.056975,-0.00918572,0.0,0 STARLINK-5119,1 53986U 22125Y   23002.00001157 -.00918572  00000-0 -56975-1 0  9991,2 53986  53.2174  23.3303 0001643  50.6198 197.6379 15.12112853  1307,6907.895,95.231,530.895,528.625,0.0
53986.0,STARLINK-5119,PAYLOAD,2023-01-02 14:00:01,15.10976552,0.0001813,53.2169,20.7025,46.2958,137.9269,-0.059021,-0.00921609,0.0,0 STARLINK-5119,1 53986U 22125Y   23002.58334491 -.00921609  00000-0 -59021-1 0  9994,2 53986  53.2169  20.7025 0001813  46.2958 137.9269 15.10976552  1304,6911.358,95.303,534.476,531.969,0.0
53986.0,STARLINK-5119,PAYLOAD,2023-01-02 22:00:00,15.10324462,0.0001766,53.2172,19.2004,47.813,150.1749,-0.060085,-0.00921375,0.0,0 STARLINK-5119,1 53986U 22125Y   23002.91667824 -.00921375  00000-0 -60085-1 0  9992,2 53986  53.2172  19.2004 0001766  47.8130 150.1749 15.10324462 14282,6913.347,95.344,536.433,533.991,0.0
53986.0,STARLINK-5119,PAYLOAD,2023-01-03 14:00:01,15.09018106,0.0001909999999999,53.2168,16.2053,40.6187,182.5579,-0.017372,-0.00267949,0.0,0 STARLINK-5119,1 53986U 22125Y   23003.58334491 -.00267949  00000-0 -17372-1 0  9998,2 53986  53.2168  16.2053 0001910  40.6187 182.5579 15.09018106 14386,6917.3359999999975,95.426,540.5219999999998,537.88,0.0
53986.0,STARLINK-5119,PAYLOAD,2023-01-03 22:00:00,15.08857092,0.0001476999999999,53.2139,14.7075,48.0831,186.7756,0.002416,0.0003839,0.0,0 STARLINK-5119,1 53986U 22125Y   23003.91667824  .00038390  00000-0  24160-2 0  9992,2 53986  53.2139  14.7075 0001477  48.0831 186.7756 15.08857092 14430,6917.828,95.436,540.715,538.6709999999998,0.0
53986.0,STARLINK-5119,PAYLOAD,2023-01-04 06:00:00,15.08874854,0.0001601,53.2139,13.2124,44.3621,202.1265,-0.0022311999999999,-0.00035656,0.0,0 STARLINK-5119,1 53986U 22125Y   23004.25001157 -.00035656  00000-0 -22312-2 0  9992,2 53986  53.2139  13.2124 0001601  44.3621 202.1265 15.08874854 14482,6917.774,95.435,540.746,538.531,0.0
53986.0,STARLINK-5119,PAYLOAD,2023-01-04 14:00:01,15.08895159,0.0001665999999999,53.2137,11.7158,42.9404,215.2322,-0.0064459,-0.00101585,0.0,0 STARLINK-5119,1 53986U 22125Y   23004.58335648 -.00101585  00000-0 -64459-2 0  9996,2 53986  53.2137  11.7158 0001666  42.9404 215.2322 15.08895159  1301,6917.712,95.434,540.729,538.424,0.0
53986.0,STARLINK-5119,PAYLOAD,2023-01-04 22:00:00,15.08791842,0.0001330999999999,53.214,10.2177,59.4318,210.2546,0.0040878999999999,0.00065288,0.0,0 STARLINK-5119,1 53986U 22125Y   23004.91667824  .00065288  00000-0  40879-2 0  9994,2 53986  53.2140  10.2177 0001331  59.4318 210.2546 15.08791842  1303,6918.028,95.441,540.813,538.972,0.0
53986.0,STARLINK-5119,PAYLOAD,2023-01-05 14:00:01,15.08806737,0.0001375,53.2149,7.2262,58.0121,234.821,-0.00013265,-2.396e-05,0.0,0 STARLINK-5119,1 53986U 22125Y   23005.58334491 -.00002396  00000-0 -13265-3 0  9992,2 53986  53.2149   7.2262 0001375  58.0121 234.8210 15.08806737  1308,6917.982,95.44,540.798,538.896,0.0
53986.0,STARLINK-5119,PAYLOAD,2023-01-05 20:00:01,15.0878629,0.0001301,53.2151,6.1025,65.5453,145.9605,0.0035896,0.0005722,0.0,0 STARLINK-5119,1 53986U 22125Y   23005.83334491  .00057220  00000-0  35896-2 0  9997,2 53986  53.2151   6.1025 0001301  65.5453 145.9605 15.08786290  1307,6918.045,95.441,540.81,539.01,0.0
